#aV2006 12 25  0  0   .00000000      96 DD+AD WGS84 FIT  NGA
## 1407  86400.00000000   900.00000000 54094  .0000000000000
+   30     1  2  3  4  5  6  7  8  9 10 11 12 13 14 16 17 18
+         19 20 21 22 23 24 25 26 27 28 29 30 31  0  0  0  0
+          0  0  0  0  0  0  0  0  0  0  0  0  0  0  0  0  0
+          0  0  0  0  0  0  0  0  0  0  0  0  0  0  0  0  0
+          0  0  0  0  0  0  0  0  0  0  0  0  0  0  0  0  0
++         0  0  0  0  0  0  0  0  0  0  0  0  0  0  0  0  0
++         0  0  0  0  0  0  0  0  0  0  0  0  0  0  0  0  0
++         0  0  0  0  0  0  0  0  0  0  0  0  0  0  0  0  0
++         0  0  0  0  0  0  0  0  0  0  0  0  0  0  0  0  0
++         0  0  0  0  0  0  0  0  0  0  0  0  0  0  0  0  0
%c cc cc ccc ccc cccc cccc cccc cccc ccccc ccccc ccccc ccccc
%c cc cc ccc ccc cccc cccc cccc cccc ccccc ccccc ccccc ccccc
%f  0.0000000  0.000000000  0.00000000000  0.000000000000000
%f  0.0000000  0.000000000  0.00000000000  0.000000000000000
%i    0    0    0    0      0      0      0      0         0
%i    0    0    0    0      0      0      0      0         0
/*      NGA, ST. LOUIS,MO.                                  
/*   EPHEMERIS COMPUTED FROM  3 DAYS OF DATA                
/* CCCCCCCCCCCCCCCCCCCCCCCCCCCCCCCCCCCCCCCCCCCCCCCCCCCCCCCCC
/* CCCCCCCCCCCCCCCCCCCCCCCCCCCCCCCCCCCCCCCCCCCCCCCCCCCCCCCCC
*  2006 12 25 23 45   .00000000                                                 
P  1 -14237.555865  18116.043454 -12947.902180     97.488861                    
V  1   3168.832943 -16540.233958 -26266.537636       .022747                    
P  2  20682.659603 -13223.889564   9586.018039     67.334782                    
V  2  12981.864961   -534.321281 -28298.835120       .035069                    
P  3 -11211.155244  21346.064661  10569.257907    480.807664                    
V  3  -1620.340740 -14291.512584  26970.766110       .174569                    
P  4  26141.550148  -5034.863182  -2774.256182    349.378173                    
V  4  -2545.302701   3691.854732 -30963.505255       .031422                    
P  5  -9309.657510 -20777.817352 -14033.294576    445.377655                    
V  5  15102.794642   9048.195465 -23657.498706       .183951                    
P  6  -9124.340930 -18274.436571  17134.063553    491.611314                    
V  6   6585.786434 -20597.055722 -18716.953344      -.197591                    
P  7 -13055.103921 -11722.370154  20254.960362    464.308299                    
V  7   5738.541246 -24455.233148 -10711.946707      -.099129                    
P  8  23901.616408   2365.583765  11683.168715    -90.938849                    
V  8 -14038.122237   5120.356663  26965.364165      -.014441                    
P  9   3118.037921 -16473.212602 -21125.713041     50.364762                    
V  9  24535.025165  -7214.124608   9744.854691       .015728                    
P 10   8862.364037 -12178.192149  21756.474346     94.905875                    
V 10  19882.422317  19515.386771   3124.021383       .005462                    
P 11    760.004206  17422.378539 -20074.466903      1.064346                    
V 11 -23778.360423   9686.707709   7829.860772       .013013                    
P 12  -8193.764316 -21138.054833 -13764.644994    -77.215794                    
V 12  14259.521628  10609.260003 -24558.587393       .087615                    
P 13   8336.923192  16362.879708  19116.336981    126.084637                    
V 13  -7466.733021  23215.078137 -16495.912363       .039065                    
P 14 -15256.302825   2019.621296 -21553.981157      2.720498                    
V 14   6599.584231 -26703.307061  -7213.052847       .011359                    
P 16 -13191.029681   8148.345155  21654.039339    105.634612                    
V 16 -19212.470546 -19383.824342  -4303.606714       .039694                    
P 17  15829.792081  -1919.754410 -21231.071968     84.908051                    
V 17  -5937.745568  26313.182302  -6921.008713      -.014882                    
P 18 -19957.122925 -17441.549129  -3372.405875   -253.697238                    
V 18  -1094.287384  -5049.858357  31043.994670      -.001807                    
P 19  -8166.571389  25220.856722    283.597718     48.990255                    
V 19  -2794.876690  -1141.450675  31735.554701       .043951                    
P 20  10670.353291  21403.154660 -11686.389705    -21.862378                    
V 20 -12404.724703  -8267.464690 -26633.033991      -.000520                    
P 21 -20119.217353  -7135.505790  16232.057664     66.307428                    
V 21  19206.009404  -6784.496389  20390.795118       .012936                    
P 22 -21026.490705  -7675.340979 -14150.642649    158.074642                    
V 22 -10793.658918 -14909.766346  23834.606286       .021346                    
P 23   1681.835277  24066.922668  10808.522838    143.840663                    
V 23  -5640.743267  12920.298191 -27874.157159       .011570                    
P 24  15277.274120 -15131.254247  16013.367714     63.124718                    
V 24  19705.436266  -2827.067339 -21442.504930       .030998                    
P 25 -23849.579736  11612.920624   2954.216931    397.968357                    
V 25  -4022.600927  -1361.697500 -31280.890447      -.068761                    
P 26   7721.372268 -25040.757520    994.433596    -64.065764                    
V 26   1770.090326   2350.642133  32779.518269      -.172020                    
P 27  17154.449355   8182.103322  19302.968937     85.109910                    
V 27 -21395.945316   8738.995869  15555.378391       .020237                    
P 28  21652.670657  11209.413959 -10645.188111     11.119903                    
V 28   8169.201737  11416.767269  27488.419174      -.009917                    
P 29  10092.646469 -23580.450111   6407.242283    281.781340                    
V 29    174.190369   8162.381683  31178.015166       .204652                    
P 30 -17601.832486 -19623.277591  -4007.382002     20.592643                    
V 30   5594.771290    813.549202 -30797.284978       .012078                    
P 31 -25383.204206   7889.104910    629.914326    -14.814794                    
V 31  -1324.268142  -2518.489906 -31707.318548       .067683                    
EOF
